{
  "name": "SATGUS",
  "line1": "1 62713U 25009DJ  25238.58699984  .00005539  00000+0  49774-3 0  9998",
  "line2": "2 62713  97.7319 317.9845 0003387  68.8382 291.3201 14.96080541 33439",
  "fetched_at": "2025-08-27T00:17:50.412090+00:00"
}